STARLINK-2413           
1 47827U 21018AS  26018.96001154 -.00000044  00000+0  15925-4 0  9997
2 47827  53.0555 105.1065 0001376  93.6582 266.4565 15.06395775269291
STARLINK-2415           
1 47828U 21018AT  26018.69640895  .00000970  00000+0  83965-4 0  9995
2 47828  53.0569 126.0445 0001071 104.1741 255.9367 15.06414484268929
STARLINK-2419           
1 47830U 21018AV  26018.97656098 -.00001045  00000+0 -51301-4 0  9996
2 47830  53.0565 124.7924 0001277  94.0648 266.0487 15.06394022268950
STARLINK-2420           
1 47831U 21018AW  26018.71163568 -.00001104  00000+0 -55257-4 0  9994
2 47831  53.0547 100.9815 0001200  92.4563 267.6563 15.06393055269329
STARLINK-2422           
1 47832U 21018AX  26018.66786230  .00000883  00000+0  78207-4 0  9997
2 47832  53.0546 116.1773 0001425  93.7596 266.3556 15.06395778269052
STARLINK-2423           
1 47833U 21018AY  26018.95904730 -.00001727  00000+0 -97062-4 0  9997
2 47833  53.0565 114.8706 0001257  96.7768 263.3364 15.06397911269158
STARLINK-2424           
1 47834U 21018AZ  26018.96994130  .00022350  00000+0  15077-2 0  9999
2 47834  53.0548 114.8206 0001535  96.7496 263.3668 15.06568310269152
STARLINK-2426           
1 47836U 21018BB  26018.59019152  .00040520  00000+0  27018-2 0  9999
2 47836  53.0561 116.6099 0001244 113.1403 246.9717 15.06698597269049
STARLINK-2427           
1 47837U 21018BC  26018.93141915 -.00001071  00000+0 -53016-4 0  9990
2 47837  53.0548  94.9935 0001429  87.5106 272.6046 15.06387343269383
STARLINK-2429           
1 47838U 21018BD  26018.54622123 -.00006500  00000+0 -41795-3 0  9995
2 47838  53.0553 116.7250 0001428  91.6173 268.4980 15.06391023269034
STARLINK-2431           
1 47839U 21018BE  26018.97287762 -.00000717  00000+0 -29263-4 0  9990
2 47839  53.0540  84.8076 0001342  88.0419 272.0724 15.06395383269535
STARLINK-2432           
1 47840U 21018BF  26018.51859655 -.00001824  00000+0 -10364-3 0  9999
2 47840  53.0566  96.8463 0001422  76.8439 283.2708 15.06381970269313
STARLINK-2433           
1 47841U 21018BG  26018.91298953 -.00001980  00000+0 -11406-3 0  9993
2 47841  53.0536  95.0764 0001609  91.5982 268.5192 15.06392047269376
STARLINK-2435           
1 47843U 21018BJ  26018.80559853  .00003132  00000+0  22897-3 0  9997
2 47843  53.0565 120.5585 0001242  85.7828 274.3303 15.06418139269024
STARLINK-2446           
1 47844U 21018BK  26018.53885656 -.00001048  00000+0 -51473-4 0  9990
2 47844  53.0554 116.7564 0001409  91.2799 268.8351 15.06395921269036
STARLINK-2453           
1 47845U 21018BL  26018.55727332  .00005449  00000+0  38438-3 0  9991
2 47845  53.0549 116.6742 0001407  83.7149 276.4001 15.06406493269046
