[{"OBJECT_NAME":"STARLINK-2413","OBJECT_ID":"2021-018AS","EPOCH":"2026-01-18T23:02:24.997056","MEAN_MOTION":15.06395775,"ECCENTRICITY":0.00013763,"INCLINATION":53.0555,"RA_OF_ASC_NODE":105.1065,"ARG_OF_PERICENTER":93.6582,"MEAN_ANOMALY":266.4565,"EPHEMERIS_TYPE":0,"CLASSIFICATION_TYPE":"U","NORAD_CAT_ID":47827,"ELEMENT_SET_NO":999,"REV_AT_EPOCH":26929,"BSTAR":1.5925158e-5,"MEAN_MOTION_DOT":-4.4e-7,"MEAN_MOTION_DDOT":0},{"OBJECT_NAME":"STARLINK-2415","OBJECT_ID":"2021-018AT","EPOCH":"2026-01-18T16:42:49.733280","MEAN_MOTION":15.06414484,"ECCENTRICITY":0.00010717,"INCLINATION":53.0569,"RA_OF_ASC_NODE":126.0445,"ARG_OF_PERICENTER":104.1741,"MEAN_ANOMALY":255.9367,"EPHEMERIS_TYPE":0,"CLASSIFICATION_TYPE":"U","NORAD_CAT_ID":47828,"ELEMENT_SET_NO":999,"REV_AT_EPOCH":26892,"BSTAR":8.396475e-5,"MEAN_MOTION_DOT":9.7e-6,"MEAN_MOTION_DDOT":0},{"OBJECT_NAME":"STARLINK-2419","OBJECT_ID":"2021-018AV","EPOCH":"2026-01-18T23:26:14.868672","MEAN_MOTION":15.06394022,"ECCENTRICITY":0.00012775,"INCLINATION":53.0565,"RA_OF_ASC_NODE":124.7924,"ARG_OF_PERICENTER":94.0648,"MEAN_ANOMALY":266.0487,"EPHEMERIS_TYPE":0,"CLASSIFICATION_TYPE":"U","NORAD_CAT_ID":47830,"ELEMENT_SET_NO":999,"REV_AT_EPOCH":26895,"BSTAR":-5.130067e-5,"MEAN_MOTION_DOT":-1.045e-5,"MEAN_MOTION_DDOT":0},{"OBJECT_NAME":"STARLINK-2420","OBJECT_ID":"2021-018AW","EPOCH":"2026-01-18T17:04:45.322752","MEAN_MOTION":15.06393055,"ECCENTRICITY":0.00012007,"INCLINATION":53.0547,"RA_OF_ASC_NODE":100.9815,"ARG_OF_PERICENTER":92.4563,"MEAN_ANOMALY":267.6563,"EPHEMERIS_TYPE":0,"CLASSIFICATION_TYPE":"U","NORAD_CAT_ID":47831,"ELEMENT_SET_NO":999,"REV_AT_EPOCH":26932,"BSTAR":-5.5257151e-5,"MEAN_MOTION_DOT":-1.104e-5,"MEAN_MOTION_DDOT":0},{"OBJECT_NAME":"STARLINK-2422","OBJECT_ID":"2021-018AX","EPOCH":"2026-01-18T16:01:43.302720","MEAN_MOTION":15.06395778,"ECCENTRICITY":0.00014253,"INCLINATION":53.0546,"RA_OF_ASC_NODE":116.1773,"ARG_OF_PERICENTER":93.7596,"MEAN_ANOMALY":266.3556,"EPHEMERIS_TYPE":0,"CLASSIFICATION_TYPE":"U","NORAD_CAT_ID":47832,"ELEMENT_SET_NO":999,"REV_AT_EPOCH":26905,"BSTAR":7.8206554e-5,"MEAN_MOTION_DOT":8.83e-6,"MEAN_MOTION_DDOT":0},{"OBJECT_NAME":"STARLINK-2423","OBJECT_ID":"2021-018AY","EPOCH":"2026-01-18T23:01:01.686720","MEAN_MOTION":15.06397911,"ECCENTRICITY":0.0001257,"INCLINATION":53.0565,"RA_OF_ASC_NODE":114.8706,"ARG_OF_PERICENTER":96.7768,"MEAN_ANOMALY":263.3364,"EPHEMERIS_TYPE":0,"CLASSIFICATION_TYPE":"U","NORAD_CAT_ID":47833,"ELEMENT_SET_NO":999,"REV_AT_EPOCH":26915,"BSTAR":-9.7062341e-5,"MEAN_MOTION_DOT":-1.727e-5,"MEAN_MOTION_DDOT":0},{"OBJECT_NAME":"STARLINK-2424","OBJECT_ID":"2021-018AZ","EPOCH":"2026-01-18T23:16:42.928320","MEAN_MOTION":15.0656831,"ECCENTRICITY":0.00015355,"INCLINATION":53.0548,"RA_OF_ASC_NODE":114.8206,"ARG_OF_PERICENTER":96.7496,"MEAN_ANOMALY":263.3668,"EPHEMERIS_TYPE":0,"CLASSIFICATION_TYPE":"U","NORAD_CAT_ID":47834,"ELEMENT_SET_NO":999,"REV_AT_EPOCH":26915,"BSTAR":0.0015077166,"MEAN_MOTION_DOT":0.0002235,"MEAN_MOTION_DDOT":0},{"OBJECT_NAME":"STARLINK-2426","OBJECT_ID":"2021-018BB","EPOCH":"2026-01-18T14:09:52.547328","MEAN_MOTION":15.06698597,"ECCENTRICITY":0.00012447,"INCLINATION":53.0561,"RA_OF_ASC_NODE":116.6099,"ARG_OF_PERICENTER":113.1403,"MEAN_ANOMALY":246.9717,"EPHEMERIS_TYPE":0,"CLASSIFICATION_TYPE":"U","NORAD_CAT_ID":47836,"ELEMENT_SET_NO":999,"REV_AT_EPOCH":26904,"BSTAR":0.0027017625,"MEAN_MOTION_DOT":0.0004052,"MEAN_MOTION_DDOT":0},{"OBJECT_NAME":"STARLINK-2427","OBJECT_ID":"2021-018BC","EPOCH":"2026-01-18T22:21:14.614560","MEAN_MOTION":15.06387343,"ECCENTRICITY":0.00014292,"INCLINATION":53.0548,"RA_OF_ASC_NODE":94.9935,"ARG_OF_PERICENTER":87.5106,"MEAN_ANOMALY":272.6046,"EPHEMERIS_TYPE":0,"CLASSIFICATION_TYPE":"U","NORAD_CAT_ID":47837,"ELEMENT_SET_NO":999,"REV_AT_EPOCH":26938,"BSTAR":-5.3015526e-5,"MEAN_MOTION_DOT":-1.071e-5,"MEAN_MOTION_DDOT":0},{"OBJECT_NAME":"STARLINK-2429","OBJECT_ID":"2021-018BD","EPOCH":"2026-01-18T13:06:33.514272","MEAN_MOTION":15.06391023,"ECCENTRICITY":0.00014286,"INCLINATION":53.0553,"RA_OF_ASC_NODE":116.725,"ARG_OF_PERICENTER":91.6173,"MEAN_ANOMALY":268.498,"EPHEMERIS_TYPE":0,"CLASSIFICATION_TYPE":"U","NORAD_CAT_ID":47838,"ELEMENT_SET_NO":999,"REV_AT_EPOCH":26903,"BSTAR":-0.000417951,"MEAN_MOTION_DOT":-6.5e-5,"MEAN_MOTION_DDOT":0},{"OBJECT_NAME":"STARLINK-2431","OBJECT_ID":"2021-018BE","EPOCH":"2026-01-18T23:20:56.626368","MEAN_MOTION":15.06395383,"ECCENTRICITY":0.00013428,"INCLINATION":53.054,"RA_OF_ASC_NODE":84.8076,"ARG_OF_PERICENTER":88.0419,"MEAN_ANOMALY":272.0724,"EPHEMERIS_TYPE":0,"CLASSIFICATION_TYPE":"U","NORAD_CAT_ID":47839,"ELEMENT_SET_NO":999,"REV_AT_EPOCH":26953,"BSTAR":-2.9263404e-5,"MEAN_MOTION_DOT":-7.17e-6,"MEAN_MOTION_DDOT":0},{"OBJECT_NAME":"STARLINK-2432","OBJECT_ID":"2021-018BF","EPOCH":"2026-01-18T12:26:46.741920","MEAN_MOTION":15.0638197,"ECCENTRICITY":0.00014226,"INCLINATION":53.0566,"RA_OF_ASC_NODE":96.8463,"ARG_OF_PERICENTER":76.8439,"MEAN_ANOMALY":283.2708,"EPHEMERIS_TYPE":0,"CLASSIFICATION_TYPE":"U","NORAD_CAT_ID":47840,"ELEMENT_SET_NO":999,"REV_AT_EPOCH":26931,"BSTAR":-0.00010364276,"MEAN_MOTION_DOT":-1.824e-5,"MEAN_MOTION_DDOT":0},{"OBJECT_NAME":"STARLINK-2433","OBJECT_ID":"2021-018BG","EPOCH":"2026-01-18T21:54:42.295392","MEAN_MOTION":15.06392047,"ECCENTRICITY":0.00016099,"INCLINATION":53.0536,"RA_OF_ASC_NODE":95.0764,"ARG_OF_PERICENTER":91.5982,"MEAN_ANOMALY":268.5192,"EPHEMERIS_TYPE":0,"CLASSIFICATION_TYPE":"U","NORAD_CAT_ID":47841,"ELEMENT_SET_NO":999,"REV_AT_EPOCH":26937,"BSTAR":-0.00011405639,"MEAN_MOTION_DOT":-1.98e-5,"MEAN_MOTION_DDOT":0},{"OBJECT_NAME":"STARLINK-2435","OBJECT_ID":"2021-018BJ","EPOCH":"2026-01-18T19:20:03.712992","MEAN_MOTION":15.06418139,"ECCENTRICITY":0.0001242,"INCLINATION":53.0565,"RA_OF_ASC_NODE":120.5585,"ARG_OF_PERICENTER":85.7828,"MEAN_ANOMALY":274.3303,"EPHEMERIS_TYPE":0,"CLASSIFICATION_TYPE":"U","NORAD_CAT_ID":47843,"ELEMENT_SET_NO":999,"REV_AT_EPOCH":26902,"BSTAR":0.00022896877,"MEAN_MOTION_DOT":3.132e-5,"MEAN_MOTION_DDOT":0},{"OBJECT_NAME":"STARLINK-2446","OBJECT_ID":"2021-018BK","EPOCH":"2026-01-18T12:55:57.206784","MEAN_MOTION":15.06395921,"ECCENTRICITY":0.00014096,"INCLINATION":53.0554,"RA_OF_ASC_NODE":116.7564,"ARG_OF_PERICENTER":91.2799,"MEAN_ANOMALY":268.8351,"EPHEMERIS_TYPE":0,"CLASSIFICATION_TYPE":"U","NORAD_CAT_ID":47844,"ELEMENT_SET_NO":999,"REV_AT_EPOCH":26903,"BSTAR":-5.1472854e-5,"MEAN_MOTION_DOT":-1.048e-5,"MEAN_MOTION_DDOT":0},{"OBJECT_NAME":"STARLINK-2453","OBJECT_ID":"2021-018BL","EPOCH":"2026-01-18T13:22:28.414848","MEAN_MOTION":15.06406493,"ECCENTRICITY":0.00014077,"INCLINATION":53.0549,"RA_OF_ASC_NODE":116.6742,"ARG_OF_PERICENTER":83.7149,"MEAN_ANOMALY":276.4001,"EPHEMERIS_TYPE":0,"CLASSIFICATION_TYPE":"U","NORAD_CAT_ID":47845,"ELEMENT_SET_NO":999,"REV_AT_EPOCH":26904,"BSTAR":0.00038437921,"MEAN_MOTION_DOT":5.449e-5,"MEAN_MOTION_DDOT":0}]
